BEIDOU-2 IGSO-1 (C06)   
1 36828U 10036A   25255.67754089 -.00000125  00000+0  00000+0 0  9999
2 36828  54.2780 165.4763 0048535 216.5889 318.4682  1.00251474 55311
BEIDOU-2 G4 (C04)       
1 37210U 10057A   25255.47613170 -.00000117  00000+0  00000+0 0  9992
2 37210   2.9523  70.2219 0008282 169.8255  83.1590  1.00271071 54502
BEIDOU-2 IGSO-2 (C07)   
1 37256U 10068A   25255.48996617 -.00000177  00000+0  00000+0 0  9991
2 37256  48.0485 275.2706 0048662 216.2640 143.5749  1.00260461 54013
BEIDOU-2 IGSO-3 (C08)   
1 37384U 11013A   25253.89216194 -.00000168  00000+0  00000+0 0  9992
2 37384  62.0196  42.7988 0036015 179.1356 195.1033  1.00292863 52860
BEIDOU-2 IGSO-4 (C09)   
1 37763U 11038A   25251.72474547 -.00000069  00000+0  00000+0 0  9998
2 37763  54.5804 168.2021 0144953 230.7837 303.6652  1.00260805 51823
BEIDOU-2 IGSO-5 (C10)   
1 37948U 11073A   25255.51899947 -.00000120  00000+0  00000+0 0  9996
2 37948  48.1863 274.9775 0110403 221.3717 138.1372  1.00266833 50353
BEIDOU-2 G5 (C05)       
1 38091U 12008A   25255.52738534  .00000050  00000+0  00000+0 0  9991
2 38091   2.8763  71.0138 0006745 228.4590 300.9653  1.00275846 49586
BEIDOU-2 M3 (C11)       
1 38250U 12018A   25253.97043727 -.00000051  00000+0  00000+0 0  9991
2 38250  55.9953 314.2765 0023983 266.6793  93.1192  1.86233539 90743
BEIDOU-2 M4 (C12)       
1 38251U 12018B   25254.97716793 -.00000054  00000+0  00000+0 0  9996
2 38251  55.8967 313.4793 0014990 266.2295  93.6681  1.86231938 90762
BEIDOU-2 M6 (C14)       
1 38775U 12050B   25253.61397302  .00000002  00000+0  00000+0 0  9996
2 38775  56.2963  72.1550 0011270 357.7292   2.3082  1.86230904 88104
BEIDOU-2 G6 (C02)       
1 38953U 12059A   25255.65255006 -.00000181  00000+0  00000+0 0  9992
2 38953   3.7114  76.4203 0006274 313.0578 281.3852  1.00271056 47129
BEIDOU-3S IGSO-1S (C31) 
1 40549U 15019A   25255.60887512 -.00000148  00000+0  00000+0 0  9996
2 40549  49.7207 298.8063 0041422 196.1733 168.9256  1.00258382 38290
BEIDOU-3S M2S (C58)     
1 40748U 15037A   25253.57048659 -.00000046  00000+0  00000+0 0  9999
2 40748  55.1173 311.6625 0012937 255.4789 104.4513  1.86232645 68912
BEIDOU-3S M1S (C57)     
1 40749U 15037B   25253.27625532 -.00000045  00000+0  00000+0 0  9997
2 40749  55.1140 311.6637 0002383 356.7762   3.2970  1.86253803 68912
BEIDOU-3S IGSO-2S (C56) 
1 40938U 15053A   25255.48343888 -.00000102  00000+0  00000+0 0  9995
2 40938  49.6553 262.0828 0062517 189.3365 168.3049  1.00290454 36568
BEIDOU-2 IGSO-6 (C13)   
1 41434U 16021A   25255.46320822 -.00000150  00000+0  00000+0 0  9997
2 41434  59.8404  40.8100 0056044 227.6692 345.6169  1.00270426 34692
BEIDOU-2 G7 (C03)       
1 41586U 16037A   25255.61842058 -.00000359  00000+0  00000+0 0  9990
2 41586   1.5298  66.4814 0005069 349.3787 269.1691  1.00267643  4109
BEIDOU-3 M1 (C19)       
1 43001U 17069A   25251.23173446  .00000020  00000+0  00000+0 0  9996
2 43001  56.4427  72.3885 0007295 318.6501  41.3515  1.86231139 53357
BEIDOU-3 M2 (C20)       
1 43002U 17069B   25254.39164071 -.00000001  00000+0  00000+0 0  9991
2 43002  56.4450  72.3200 0006134 356.3317   3.7033  1.86230764 53406
BEIDOU-3 M7 (C27)       
1 43107U 18003A   25254.67293549 -.00000053  00000+0  00000+0 0  9997
2 43107  54.5748 312.0169 0002823  98.2271 261.8736  1.86232402 52161
BEIDOU-3 M8 (C28)       
1 43108U 18003B   25254.08013891 -.00000050  00000+0  00000+0 0  9990
2 43108  54.5681 312.0208 0004776 256.1603 103.8576  1.86230844 52160
BEIDOU-3 M4 (C22)       
1 43207U 18018A   25251.83690792  .00000016  00000+0  00000+0 0  9998
2 43207  56.4017  72.4421 0005866  36.7138 323.3798  1.86231041 51506
BEIDOU-3 M3 (C21)       
1 43208U 18018B   25251.90348524  .00000015  00000+0  00000+0 0  9999
2 43208  56.4017  72.4439 0005532 341.6104  18.4225  1.86231012 51502
BEIDOU-3 M9 (C29)       
1 43245U 18029A   25254.80481773 -.00000049  00000+0  00000+0 0  9996
2 43245  54.4453 309.6745 0002057 231.5884 128.4612  1.86232445 50716
BEIDOU-3 M10 (C30)      
1 43246U 18029B   25254.73916453 -.00000049  00000+0  00000+0 0  9997
2 43246  54.4429 309.7042 0002584   2.4584 357.6112  1.86229041 50694
BEIDOU-2 IGSO-7 (C16)   
1 43539U 18057A   25253.66646420 -.00000132  00000+0  00000+0 0  9991
2 43539  55.1691 165.4878 0092458 236.5919 299.5488  1.00285192 26321
BEIDOU-3 M5 (C23)       
1 43581U 18062A   25253.88998350  .00000039  00000+0  00000+0 0  9995
2 43581  54.0957 191.8008 0004323 298.1043  61.8435  1.86228485 48439
BEIDOU-3 M6 (C24)       
1 43582U 18062B   25252.14271861  .00000032  00000+0  00000+0 0  9998
2 43582  54.0958 191.8494 0005677  19.0925 340.9103  1.86229577 48405
BEIDOU-3 M12 (C26)      
1 43602U 18067A   25253.69036066  .00000038  00000+0  00000+0 0  9999
2 43602  54.1893 190.5192 0008042  29.3415 330.6961  1.86227548 47914
BEIDOU-3 M11 (C25)      
1 43603U 18067B   25255.43552494  .00000029  00000+0  00000+0 0  9992
2 43603  54.1862 190.4243 0004737  17.7856 342.2293  1.86227041 47975
BEIDOU-3 M13 (C32)      
1 43622U 18072A   25253.24531760  .00000005  00000+0  00000+0 0  9993
2 43622  56.3764  71.9139 0004118 322.4436  37.5716  1.86231118 47447
BEIDOU-3 M14 (C33)      
1 43623U 18072B   25254.18469053 -.00000001  00000+0  00000+0 0  9990
2 43623  56.3792  71.8766 0003603  18.3051 341.7474  1.86231130 47452
BEIDOU-3 M16 (C35)      
1 43647U 18078A   25253.80676976 -.00000045  00000+0  00000+0 0  9992
2 43647  54.3427 309.7706 0005787  22.9083 337.1895  1.86232160 46953
BEIDOU-3 M15 (C34)      
1 43648U 18078B   25254.47290253 -.00000048  00000+0  00000+0 0  9990
2 43648  54.3379 309.7485 0002415  31.2131 328.8705  1.86232188 46986
BEIDOU-3 G1 (C59)       
1 43683U 18085A   25255.54350541 -.00000283  00000+0  00000+0 0  9994
2 43683   2.8759 105.3841 0003745   9.2149 212.8999  1.00273910 25272
BEIDOU-3 M17 (C36)      
1 43706U 18093A   25253.82058543  .00000039  00000+0  00000+0 0  9993
2 43706  54.1792 191.7747 0009073 293.4738 243.9609  1.86228073 46337
BEIDOU-3 M18 (C37)      
1 43707U 18093B   25253.95440441  .00000039  00000+0  00000+0 0  9990
2 43707  54.1801 191.7620 0007594 324.6746  35.2669  1.86229741 46332
BEIDOU-3 IGSO-1 (C38)   
1 44204U 19023A   25254.81141719 -.00000208  00000+0  00000+0 0  9998
2 44204  58.3064  40.5253 0025039 215.7448 145.9034  1.00271223  4425
BEIDOU-2 G8 (C01)       
1 44231U 19027A   25255.63030828 -.00000253  00000+0  00000+0 0  9991
2 44231   1.4260  74.3241 0006572 261.8655  27.1550  1.00271370 23290
BEIDOU-3 IGSO-2 (C39)   
1 44337U 19035A   25247.72162405 -.00000168  00000+0  00000+0 0  9990
2 44337  55.2150 161.3741 0035069 208.7975 349.2962  1.00246132 22801
BEIDOU-3 M24 (C46)      
1 44542U 19061A   25252.41488375  .00000034  00000+0  00000+0 0  9997
2 44542  54.4073 192.1979 0008716   1.9218 358.0642  1.86229277 40562
BEIDOU-3 M23 (C45)      
1 44543U 19061B   25253.88757905  .00000039  00000+0  00000+0 0  9993
2 44543  54.4054 192.1167 0005691 347.6756 192.4701  1.86229305 40598
BEIDOU-3 IGSO-3 (C40)   
1 44709U 19073A   25252.48880234 -.00000156  00000+0  00000+0 0  9998
2 44709  55.2821 283.9318 0045646 191.5070 168.4691  1.00272729 21649
BEIDOU-3 M22 (C44)      
1 44793U 19078A   25254.94099163 -.00000050  00000+0  00000+0 0  9995
2 44793  54.1880 309.6074 0004456  29.3623 330.7301  1.86232017 39467
BEIDOU-3 M21 (C43)      
1 44794U 19078B   25255.07654122 -.00000050  00000+0  00000+0 0  9993
2 44794  54.1603 309.5696 0002644  20.9091 339.1685  1.86227677 39478
BEIDOU-3 M19 (C41)      
1 44864U 19090A   25252.63294242  .00000009  00000+0  00000+0 0  9990
2 44864  56.3101  72.0806 0015410 288.3631  68.3116  1.86231390 39009
BEIDOU-3 M20 (C42)      
1 44865U 19090B   25252.44593412  .00000011  00000+0  00000+0 0  9994
2 44865  56.3119  72.1210 0012966 303.7767  17.1410  1.86231329 38981
BEIDOU-3 G2 (C60)       
1 45344U 20017A   25255.65066056 -.00000147  00000+0  00000+0 0  9994
2 45344   2.8280  42.0091 0001169 283.7717 340.4027  1.00270771 20478
BEIDOU-3 G3 (C61)       
1 45807U 20040A   25255.61842050 -.00000360  00000+0  00000+0 0  9993
2 45807   1.7655  65.5400 0004290 331.7499 287.7670  1.00274349 19288
BEIDOU-3 G4 (C62)       
1 56564U 23066A   25255.51572610 -.00000117  00000+0  00000+0 0  9997
2 56564   1.0238 295.9505 0005968 212.9367 188.6060  1.00271405  8619
BEIDOU-3 M28 (C50)      
1 58654U 23207A   25251.93371367  .00000012  00000+0  00000+0 0  9997
2 58654  55.4994  71.8088 0000659  43.5586 316.4985  1.86229792 11609
BEIDOU-3 M26 (C48)      
1 58655U 23207B   25253.34299664  .00000001  00000+0  00000+0 0  9992
2 58655  55.5029  71.7472 0000941 234.5883 125.4465  1.86231432 11618
BEIDOU-3 M25 (C47)      
1 61186U 24168B   25255.31433530 -.00000054  00000+0  00000+0 0  9992
2 61186  54.7193 311.8888 0004898 278.6691  80.2997  1.86229795  6604
BEIDOU-3 M27 (C49)      
1 61187U 24168C   25255.66642833 -.00000055  00000+0  00000+0 0  9990
2 61187  54.7145 311.8605 0001079 300.5884  69.3444  1.86229855  4099
